#cP2023 11  3  0  0  0.00000000      96 ORBIT IGS20 HLM  IGS
## 2286 432000.00000000   900.00000000 60251 0.0000000000000
+   31   G01G02G03G04G05G06G07G08G09G10G11G12G13G14G16G17G18
+        G19G20G21G22G23G24G25G26G27G28G29G30G31G32  0  0  0
+          0  0  0  0  0  0  0  0  0  0  0  0  0  0  0  0  0
+          0  0  0  0  0  0  0  0  0  0  0  0  0  0  0  0  0
+          0  0  0  0  0  0  0  0  0  0  0  0  0  0  0  0  0
++         3  2  2  2  2  2  2  3  2  2  2  2  2  2  2  2  3
++         2  2  2  2  2  2  2  2  2  2  2  2  2  2  0  0  0
++         0  0  0  0  0  0  0  0  0  0  0  0  0  0  0  0  0
++         0  0  0  0  0  0  0  0  0  0  0  0  0  0  0  0  0
++         0  0  0  0  0  0  0  0  0  0  0  0  0  0  0  0  0
%c G  cc GPS ccc cccc cccc cccc cccc ccccc ccccc ccccc ccccc
%c cc cc ccc ccc cccc cccc cccc cccc ccccc ccccc ccccc ccccc
%f  1.2500000  1.025000000  0.00000000000  0.000000000000000
%f  0.0000000  0.000000000  0.00000000000  0.000000000000000
%i    0    0    0    0      0      0      0      0         0
%i    0    0    0    0      0      0      0      0         0
/* RAPID ORBIT COMBINATION FROM WEIGHTED AVERAGE OF:        
/* cod emr esa gfz grg jgx jpl ngs sio usn whu              
/* REFERENCED TO IGS TIME (IGST) AND TO WEIGHTED MEAN POLE: 
/* PCV:IGS20      OL/AL:FES2014b NONE     Y  ORB:CMB CLK:CMB
*  2023 11  3  7 30  0.00000000
PG01  21945.094978  15291.330169   -317.628721    163.232767  8  5  7 102       
PG02  20489.592032  15801.460094  -5920.226161   -533.919671  6  7  3 104       
PG03  12100.821731  13560.436728  19259.850226    -38.988800  4  4  6  92       
PG04  19585.035837   4352.018144  17475.189312    202.408330  4  6  6  93       
PG05  -6342.101470 -23969.145590  -9577.078252   -148.961783  7  6  5 110       
PG06   6848.870872 -12970.516418  22208.967993    515.556684  6  3  6 103       
PG07  22251.559319   2541.663732 -14159.186517     23.371701  2  6  4  93       
PG08  11933.256647  10663.048518 -21332.176956   -150.316756  5  5  3 100       
PG09  24187.123081  -5169.430386   9670.027588    -14.060207  6  4  2  92       
PG10 -10862.646313  19002.617611 -14618.391671    -59.915753  7  6  6 109       
PG11  -5311.195826 -19063.607240  17759.834559   -443.713915  5  8  7  90       
PG12 -10546.776617 -16150.174645  18016.287420   -442.917369  5  6  3 109       
PG13  -1240.280017 -15361.806009 -21811.517694    591.130599  8  6  1  94       
PG14  13354.001825 -15671.370297 -16660.036826    232.459071  5  4  3  87       
PG16   -131.625248  25861.870480  -5174.018538   -428.589877  5  5  6  98       
PG17  22336.392753 -13605.041910   5429.672231    723.512096  4  6  4  74       
PG18 -21007.953221   -936.190457 -16323.892505   -468.112773  3  7  9 111       
PG19  16910.422995 -15655.793564  12699.032041    393.711598  4  4  4  88       
PG20   -661.644272 -26449.326281   3335.630895    403.538685  5  8  4 103       
PG21  18710.960398  17076.361540  -8884.816303    145.218555  7  9  4 108       
PG22  10761.627546 -21732.351318 -10706.852349     90.895941  3  3  3  86       
PG23 -14539.182665   6439.222303 -21230.833692     92.704771  5  5  5 117       
PG24 -20919.437045 -15875.330486  -5663.332432   -362.168744  3  6  3  95       
PG25 -15136.816011  -2364.678454  21385.042970    475.681310  5  6  4 101       
PG26  -3913.917389  25385.769114   5842.982279    219.165889  6  9  5  87       
PG27  -2023.526609  16960.470262 -20485.065680    -64.602972  5  5    118       
PG28  -8714.599570  12464.600847  21751.227452    -38.070112  4  7  4 116       
PG29 -24521.482077   2814.871615   9903.714717   -610.251140  6  5  4 106       
PG30  15911.323153  -7120.213303 -19985.544463   -472.210610  6  6  4 102       
PG31   -135.359846  17111.311563  20003.746508   -225.374035  3  7  6  98       
PG32 -19122.350215  16383.702563   8287.155974   -581.117476  6  5  5 105       
*  2023 11  3  7 45  0.00000000
PG01  21732.764204  15324.689806  -3202.278556    163.232676  7  5  7 104       
PG02  19598.700747  15596.974224  -8614.278359   -533.915179  6  7  4 102       
PG03  11941.261998  15690.908333  17699.343378    -38.966660  5  4  6 104       
PG04  17780.963504   5400.818413  19030.836217    202.417883  3  6  7  96       
PG05  -6143.573116 -24896.593373  -6912.675625   -148.963669  7  6  5 105       
PG06   8983.933145 -11636.183672  22195.308738    515.548163  5  4  5  97       
PG07  23463.261839   3528.636370 -11931.290228     23.362908  3  6  4  83       
PG08   9833.953577  11913.366000 -21703.143801   -150.317764  5  6  3 102       
PG09  23211.488787  -4342.801208  12127.183233    -14.050255  6  4  2 101       
PG10 -10981.599149  17170.661741 -16658.675224    -59.916834  6  6  6 113       
PG11  -3494.868410 -17978.241253  19274.234697   -443.728902  6  7  7  81       
PG12 -10206.857144 -18134.246660  16272.737921   -442.921151  5  7  3 110       
PG13   1043.210466 -16163.357455 -21210.288689    591.134395  8  5  2  93       
PG14  13428.209242 -13650.141975 -18311.118033    232.468896  5  4  3  92       
PG16   -449.783794  26228.604717  -2328.168107   -428.584036  5  4  7  90       
PG17  22794.626930 -13590.573567   2607.719816    723.511912  5  7  3  55       
PG18 -22400.504600  -1993.861285 -14264.050508   -468.122858  3  7  9 115       
PG19  18241.096721 -15969.261257  10238.373954    393.716483  3  5  4  85       
PG20   -324.269518 -25961.465562   6093.127499    403.536437  5  7  4  96       
PG21  17559.922023  16697.898069 -11366.360458    145.217857  7  9  4 112       
PG22  10798.809197 -20303.577784 -13082.524510     90.889438  3  4  3  85       
PG23 -14599.357015   3976.819241 -21801.848485     92.710284  5  4  5 105       
PG24 -20127.716716 -15794.154551  -8289.892547   -362.177128  4  5  3  99       
PG25 -15085.667261  -4859.986672  21026.099941    475.682864  5  7  4 100       
PG26  -4298.888633  24556.109592   8496.679580    219.163598  6  8  6  97       
PG27  -4036.043139  17939.033509 -19266.932181    -64.607872  6  5  1 111       
PG28 -10858.887930  11223.840396  21460.508464    -38.077183  5  7  4 104       
PG29 -23432.732918   2125.473460  12380.568818   -610.251299  6  5  3  88       
PG30  17757.205437  -5834.114763 -18845.112588   -472.206949  7  6  3  98       
PG31  -2204.592502  15908.341408  20885.451357   -225.374218  3  7  6 117       
PG32 -19925.015727  16537.834013   5570.110501   -581.121822  6  5  5  85       
*  2023 11  3  8  0  0.00000000
PG01  21243.536916  15212.581622  -6033.212234    163.232617  7  5  7  96       
PG02  18420.303580  15324.582164 -11158.798993   -533.910765  6  8  4 103       
PG03  11893.326365  17630.240431  15832.056055    -38.944510  5  4  6  97       
PG04  15897.608961   6622.552049  20260.426910    202.427435  2  6  7 102       
PG05  -5967.964518 -25526.634774  -4129.294512   -148.964921  7  6  4 105       
PG06  11170.479911 -10436.875547  21802.406554    515.539655  5  4  5  96       
PG07  24488.596496   4322.994657  -9497.956558     23.353835  4  5  4  93       
PG08   7781.354542  13284.380706 -21703.987100   -150.318998  5  6  4 102       
PG09  22056.680008  -3319.894964  14375.292199    -14.040188  6  4  2 101       
PG10 -11207.886957  15131.391784 -18404.517056    -59.918216  5  6  6 112       
PG11  -1492.172315 -16912.452122  20458.010776   -443.743880  6  7  7  98       
PG12  -9979.602325 -19916.067614  14244.559510   -442.925093  5  7  3 111       
PG13   3202.369870 -17051.920336 -20249.282638    591.138100  8  5  3  94       
PG14  13603.422740 -11467.082664 -19644.748752    232.478703  5  5  4  95       
PG16   -734.148806  26284.143156    558.747778   -428.577978  5  4  7  89       
PG17  22973.273562 -13445.034016   -258.539657    723.511655  5  7  3  63       
PG18 -23632.541544  -2853.536159 -11960.676883   -468.132973  4  7  9 100       
PG19  19289.740158 -16224.944772   7596.584422    393.721227  4  6  3  70       
PG20     99.777013 -25193.393785   8747.028886    403.535170  5  6  4 109       
PG21  16136.392508  16279.270071 -13656.666157    145.216851  7  9  5 106       
PG22  10898.913931 -18617.283657 -15230.383825     90.883125  3  5  3  95       
PG23 -14796.162796   1479.721245 -21996.802218     92.715847  4  4  5 115       
PG24 -19073.009635 -15640.120083 -10779.033051   -362.185540  5  5  3  90       
PG25 -15156.320852  -7289.019922  20295.836836    475.684447  6  7  4 104       
PG26  -4753.392381  23453.326384  11000.410738    219.161281  6  8  6  99       
PG27  -5866.760565  18940.808605 -17719.979206    -64.612775  6  5  2 115       
PG28 -13016.495149  10120.328707  20799.741009    -38.084274  5  7  4 104       
PG29 -22144.940034   1252.518819  14644.995708   -610.251334  6  5  3 103       
PG30  19531.329734  -4710.297855 -17379.732004   -472.203409  7  6  3  90       
PG31  -4398.095033  14773.186138  21398.998555   -225.374527  3  7  6 107       
PG32 -20455.351340  16563.360188   2756.413198   -581.126062  6  5  5  97       
EOF
